NORAD_CAT_ID,OBJECT_NAME,OBJECT_TYPE,EPOCH,MEAN_MOTION,ECCENTRICITY,INCLINATION,RA_OF_ASC_NODE,ARG_OF_PERICENTER,MEAN_ANOMALY,BSTAR,MEAN_MOTION_DOT,MEAN_MOTION_DDOT,TLE_LINE0,TLE_LINE1,TLE_LINE2,SEMIMAJOR_AXIS,PERIOD,APOGEE,PERIGEE,DECAYED
53603.0,STARLINK-4692,PAYLOAD,2023-02-22 12:50:06,15.08840888,0.000118,53.2177,187.6262,83.536,276.5766,2.6749e-05,1.38e-06,0.0,0 STARLINK-4692,1 53603U 22104R   23053.53479868  .00000138  00000-0  26749-4 0  9993,2 53603  53.2177 187.6262 0001180  83.5360 276.5766 15.08840888 27931,6917.878,95.437,540.559,538.926,0.0
53603.0,STARLINK-4692,PAYLOAD,2023-02-22 16:00:52,15.08843905,0.0001116,53.2173,187.0322,75.7454,284.3662,4.8808e-05,4.89e-06,0.0,0 STARLINK-4692,1 53603U 22104R   23053.66727610  .00000489  00000-0  48808-4 0  9997,2 53603  53.2173 187.0322 0001116  75.7454 284.3662 15.08843905 27265,6917.868,95.437,540.505,538.961,0.0
53603.0,STARLINK-4692,PAYLOAD,2023-02-23 12:40:54,15.08829359,0.0001256,53.2176,183.164,96.1123,264.0012,-3.6234e-05,-8.64e-06,0.0,0 STARLINK-4692,1 53603U 22104R   23054.52840767 -.00000864  00000-0 -36234-4 0  9991,2 53603  53.2176 183.1640 0001256  96.1123 264.0012 15.08829359 27398,6917.913,95.438,540.647,538.909,0.0
53603.0,STARLINK-4692,PAYLOAD,2023-02-23 19:02:25,15.08843753,0.0001158,53.2169,181.9739,92.7813,267.3312,4.5719e-05,4.4e-06,0.0,0 STARLINK-4692,1 53603U 22104R   23054.79335648  .00000440  00000-0  45719-4 0  9993,2 53603  53.2169 181.9739 0001158  92.7813 267.3312 15.08843753 27432,6917.869,95.437,540.535,538.933,0.0
53603.0,STARLINK-4692,PAYLOAD,2023-02-24 01:23:59,15.08840741,0.0001178,53.2172,180.7837,85.5347,274.578,-8.8945e-05,-1.703e-05,0.0,0 STARLINK-4692,1 53603U 22104R   23055.05832212 -.00001703  00000-0 -88945-4 0  9995,2 53603  53.2172 180.7837 0001178  85.5347 274.5780 15.08840741 27473,6917.878,95.438,540.558,538.928,0.0
53603.0,STARLINK-4692,PAYLOAD,2023-02-24 12:31:41,15.08832213,9.54e-05,53.2175,178.7048,97.9624,262.1476,9.4214e-05,1.212e-05,0.0,0 STARLINK-4692,1 53603U 22104R   23055.52200456  .00001212  00000-0  94214-4 0  9995,2 53603  53.2175 178.7048 0000954  97.9624 262.1476 15.08832213 28238,6917.904,95.438,540.429,539.109,0.0
53603.0,STARLINK-4692,PAYLOAD,2023-02-24 17:17:49,15.08846029,0.0001032,53.2172,177.812,89.4209,270.6902,7.5786e-05,9.19e-06,0.0,0 STARLINK-4692,1 53603U 22104R   23055.72071676  .00000919  00000-0  75786-4 0  9993,2 53603  53.2172 177.8120 0001032  89.4209 270.6902 15.08846029 27573,6917.862,95.437,540.441,539.013,0.0
53603.0,STARLINK-4692,PAYLOAD,2023-02-25 01:14:46,15.08836371,0.0001314,53.2194,176.3256,80.6369,279.4772,2.7486e-05,1.5e-06,0.0,0 STARLINK-4692,1 53603U 22104R   23056.05192540  .00000150  00000-0  27486-4 0  9995,2 53603  53.2194 176.3256 0001314  80.6369 279.4772 15.08836371 27621,6917.891,95.438,540.665,538.847,0.0
53603.0,STARLINK-4692,PAYLOAD,2023-02-25 12:22:28,15.08831268,0.0001295,53.2178,174.2458,80.8113,279.3026,0.00012147,1.645e-05,0.0,0 STARLINK-4692,1 53603U 22104R   23056.51560878  .00001645  00000-0  12147-3 0  9996,2 53603  53.2178 174.2458 0001295  80.8113 279.3026 15.08831268 28386,6917.907,95.438,540.668,538.876,0.0
53603.0,STARLINK-4692,PAYLOAD,2023-02-25 13:57:51,15.08837153,0.0001594,53.2182,173.9488,65.385,294.7308,4.9945e-05,5.07e-06,0.0,0 STARLINK-4692,1 53603U 22104R   23056.58184883  .00000507  00000-0  49945-4 0  9994,2 53603  53.2182 173.9488 0001594  65.3850 294.7308 15.08837153 28392,6917.889,95.438,540.857,538.651,0.0
53603.0,STARLINK-4692,PAYLOAD,2023-02-26 01:05:32,15.08848379,0.0001567,53.2186,171.8665,77.1439,282.9728,6.246e-05,7.06e-06,0.0,0 STARLINK-4692,1 53603U 22104R   23057.04552072  .00000706  00000-0  62460-4 0  9993,2 53603  53.2186 171.8665 0001567  77.1439 282.9728 15.08848379 27772,6917.855,95.437,540.804,538.636,0.0
53603.0,STARLINK-4692,PAYLOAD,2023-02-26 07:27:05,15.08843716,0.0001263,53.2181,170.6769,86.8524,273.2612,0.00019951,2.889e-05,0.0,0 STARLINK-4692,1 53603U 22104R   23057.31048050  .00002889  00000-0  19951-3 0  9999,2 53603  53.2181 170.6769 0001263  86.8524 273.2612 15.08843716 28501,6917.869,95.437,540.608,538.86,0.0
53603.0,STARLINK-4692,PAYLOAD,2023-02-26 16:59:23,15.08861719,0.0001366,53.2175,168.8929,88.4313,271.6836,0.00018034,2.585e-05,0.0,0 STARLINK-4692,1 53603U 22104R   23057.70790792  .00002585  00000-0  18034-3 0  9993,2 53603  53.2175 168.8929 0001366  88.4313 271.6836 15.08861719 27871,6917.814,95.436,540.624,538.734,0.0
53603.0,STARLINK-4692,PAYLOAD,2023-02-27 00:56:20,15.08835707,0.0002256,53.219,167.4074,70.4342,289.6894,5.5155e-05,5.9e-06,0.0,0 STARLINK-4692,1 53603U 22104R   23058.03913056  .00000590  00000-0  55155-4 0  9990,2 53603  53.2190 167.4074 0002256  70.4342 289.6894 15.08835707 27923,6917.894,95.438,541.319,538.198,0.0
53603.0,STARLINK-4692,PAYLOAD,2023-02-27 07:17:53,15.08837698,0.0001737,53.2171,166.2183,69.4781,290.6398,6.6073e-05,7.64e-06,0.0,0 STARLINK-4692,1 53603U 22104R   23058.30408691  .00000764  00000-0  66073-4 0  9998,2 53603  53.2171 166.2183 0001737  69.4781 290.6398 15.08837698 28651,6917.887,95.438,540.954,538.551,0.0
53603.0,STARLINK-4692,PAYLOAD,2023-02-27 13:39:24,15.08857695,0.0001602,53.2164,165.0258,84.6711,275.4464,0.00038736,5.885e-05,0.0,0 STARLINK-4692,1 53603U 22104R   23058.56903823  .00005885  00000-0  38736-3 0  9996,2 53603  53.2164 165.0258 0001602  84.6711 275.4464 15.08857695 28009,6917.826,95.436,540.8,538.583,0.0
53603.0,STARLINK-4692,PAYLOAD,2023-02-28 13:30:11,15.0885187,0.0001687,53.2176,160.5671,96.8949,263.2236,0.00013508,1.863e-05,0.0,0 STARLINK-4692,1 53603U 22104R   23059.56263368  .00001863  00000-0  13508-3 0  9992,2 53603  53.2176 160.5671 0001687  96.8949 263.2236 15.08851870 28845,6917.844,95.437,540.876,538.542,0.0
53603.0,STARLINK-4692,PAYLOAD,2023-02-28 15:05:34,15.08852431,0.0001731,53.2183,160.2721,87.3031,272.8159,0.0001843,2.647e-05,0.0,0 STARLINK-4692,1 53603U 22104R   23059.62887393  .00002647  00000-0  18430-3 0  9999,2 53603  53.2183 160.2721 0001731  87.3031 272.8159 15.08852431 28162,6917.842,95.437,540.905,538.51,0.0
53603.0,STARLINK-4692,PAYLOAD,2023-02-28 16:40:57,15.08858553,0.0001582,53.2167,159.9709,93.0585,267.0588,0.00027244,4.053e-05,0.0,0 STARLINK-4692,1 53603U 22104R   23059.69511028  .00004053  00000-0  27244-3 0  9991,2 53603  53.2167 159.9709 0001582  93.0585 267.0588 15.08858553 28867,6917.824,95.436,540.783,538.594,0.0
53603.0,STARLINK-4692,PAYLOAD,2023-02-28 23:02:32,15.08815314,0.0002603,53.2167,158.7793,78.7586,281.3699,-0.00041799,-6.93e-05,0.0,0 STARLINK-4692,1 53603U 22104R   23059.96009314 -.00006930  00000-0 -41799-3 0  9990,2 53603  53.2167 158.7793 0002603  78.7586 281.3699 15.08815314 28212,6917.956,95.439,541.622,538.02,0.0
53603.0,STARLINK-4692,PAYLOAD,2023-03-01 11:45:38,15.087997,0.0001412,53.2177,156.4066,96.4291,263.6862,-0.00047932,-7.9e-05,0.0,0 STARLINK-4692,1 53603U 22104R   23060.49002597 -.00007900  00000-0 -47932-3 0  9999,2 53603  53.2177 156.4066 0001412  96.4291 263.6862 15.08799700 28291,6918.004,95.44,540.845,538.892,0.0
53603.0,STARLINK-4692,PAYLOAD,2023-03-01 13:21:01,15.08801458,0.0001463,53.2179,156.1088,101.9989,258.1167,-0.00048605,-8.007e-05,0.0,0 STARLINK-4692,1 53603U 22104R   23060.55626670 -.00008007  00000-0 -48605-3 0  9997,2 53603  53.2179 156.1088 0001463 101.9989 258.1167 15.08801458 28994,6917.998,95.44,540.875,538.851,0.0
53603.0,STARLINK-4692,PAYLOAD,2023-03-01 22:53:20,15.08816099,0.0001172,53.2178,154.3241,126.6702,233.4398,-4.6952e-05,-1.034e-05,0.0,0 STARLINK-4692,1 53603U 22104R   23060.95370760 -.00001034  00000-0 -46952-4 0  9994,2 53603  53.2178 154.3241 0001172 126.6702 233.4398 15.08816099 28368,6917.953,95.439,540.629,539.008,0.0
53603.0,STARLINK-4692,PAYLOAD,2023-03-02 14:47:10,15.08858079,0.0001252,53.2176,151.3476,116.3173,243.7948,0.00076578,0.00011926,0.0,0 STARLINK-4692,1 53603U 22104R   23061.61609610  .00011926  00000-0  76578-3 0  9992,2 53603  53.2176 151.3476 0001252 116.3173 243.7948 15.08858079 28460,6917.825,95.436,540.556,538.824,0.0
53603.0,STARLINK-4692,PAYLOAD,2023-03-03 06:41:02,15.08859491,0.0001412,53.218,148.3765,110.1409,249.9735,0.00063931,9.907e-05,0.0,0 STARLINK-4692,1 53603U 22104R   23062.27849731  .00009907  00000-0  63931-3 0  9990,2 53603  53.2180 148.3765 0001412 110.1409 249.9735 15.08859491 28566,6917.821,95.436,540.663,538.709,0.0
53603.0,STARLINK-4692,PAYLOAD,2023-03-03 11:27:11,15.08865886,0.0001288,53.2176,147.4829,113.3005,246.8123,0.00056285,8.687e-05,0.0,0 STARLINK-4692,1 53603U 22104R   23062.47721157  .00008687  00000-0  56285-3 0  9991,2 53603  53.2176 147.4829 0001288 113.3005 246.8123 15.08865886 29282,6917.801,95.436,540.557,538.775,0.0
53603.0,STARLINK-4692,PAYLOAD,2023-03-03 14:37:56,15.08873426,0.0001317,53.2166,146.8868,100.1037,260.0104,0.00062375,9.662e-05,0.0,0 STARLINK-4692,1 53603U 22104R   23062.60968728  .00009662  00000-0  62375-3 0  9994,2 53603  53.2166 146.8868 0001317 100.1037 260.0104 15.08873426 29308,6917.778,95.435,540.554,538.732,0.0
53603.0,STARLINK-4692,PAYLOAD,2023-03-04 06:31:49,15.08838239,0.0001374,53.2183,143.9165,114.3675,245.746,-0.00039457,-6.562e-05,0.0,0 STARLINK-4692,1 53603U 22104R   23063.27209503 -.00006562  00000-0 -39457-3 0  9990,2 53603  53.2183 143.9165 0001374 114.3675 245.7460 15.08838239 28715,6917.886,95.438,540.701,538.8,0.0
53603.0,STARLINK-4692,PAYLOAD,2023-03-04 11:17:58,15.08840023,0.0001642,53.2167,143.0227,91.128,268.99,8.0688e-05,9.96e-06,0.0,0 STARLINK-4692,1 53603U 22104R   23063.47081563  .00000996  00000-0  80688-4 0  9992,2 53603  53.2167 143.0227 0001642  91.1280 268.9900 15.08840023 29439,6917.88,95.438,540.881,538.609,0.0
53603.0,STARLINK-4692,PAYLOAD,2023-03-04 22:25:40,15.08831903,0.0001718,53.2176,140.9406,92.1922,267.9267,0.00054307,8.364e-05,0.0,0 STARLINK-4692,1 53603U 22104R   23063.93450091  .00008364  00000-0  54307-3 0  9994,2 53603  53.2176 140.9406 0001718  92.1922 267.9267 15.08831903 29502,6917.905,95.438,540.959,538.582,0.0
